satname,norad_id,inclination_deg,eccentricity,mean_motion_rev_per_day,perigee_km,apogee_km,l1,l2
STARLINK-1309,45414,53.0538,0.0001952,15.06370695,545.9495294278449,548.6532205694439,1 45414U 20019BG  25263.08374173  .00010261  00000+0  70732-3 0  9992,2 45414  53.0538 182.5010 0001952  97.0095 263.1116 15.06370695304131
STARLINK-1316,45415,53.0546,0.0001256,15.06406557,546.3216404957575,548.0612830053487,1 45415U 20019BH  25263.04319574  .00001767  00000+0  13745-3 0  9995,2 45415  53.0546 182.6786 0001256  93.9840 266.1292 15.06406557304160
STARLINK-1318,45416,53.054,0.0001092,15.55390387,400.27777616965886,401.75834363474223,1 45416U 20019BJ  25263.11648539  .00038589  00000+0  56159-3 0  9998,2 45416  53.0540 165.1390 0001092 130.8177 229.2928 15.55390387304404
STARLINK-1286,45417,53.0524,0.0001466,15.06406518,546.1763281090562,548.2068344490872,1 45417U 20019BK  25263.14731760  .00000593  00000+0  58661-4 0  9996,2 45417  53.0524 212.2150 0001466  92.7116 267.4041 15.06406518304016
STARLINK-1308,45419,53.0525,0.0001326,15.06400121,546.2928859211206,548.129488260337,1 45419U 20019BM  25263.14363191  .00001901  00000+0  14651-3 0  9991,2 45419  53.0525 212.2320 0001326  86.0914 274.0227 15.06400121303760
STARLINK-1329,45531,53.0539,0.0001293,15.06420551,546.2531333746601,548.044012223786,1 45531U 20025A   25262.97961225  .00007818  00000+0  54286-3 0  9996,2 45531  53.0539 152.9672 0001293  82.4510 277.6626 15.06420551299366
STARLINK-1338,45532,53.0535,0.0001362,15.0640352,546.2575386620301,548.144000670487,1 45532U 20025B   25262.92433208  .00002873  00000+0  21169-3 0  9997,2 45532  53.0535 153.2153 0001362  88.3929 271.7216 15.06403520299353
STARLINK-1350,45535,53.0744,0.000275,15.30975935,471.0152109686478,474.7832809039137,1 45535U 20025E   25262.85327825  .00010333  00000+0  35203-3 0  9993,2 45535  53.0744 112.4008 0002750 113.7911 246.3377 15.30975935299942
STARLINK-1362,45538,53.0535,0.0001166,15.06423262,546.3327768470535,547.9477515050594,1 45538U 20025H   25263.08921763  .00010074  00000+0  69382-3 0  9990,2 45538  53.0535 152.1929 0001166  85.3739 274.7383 15.06423262299382
STARLINK-1368,45540,53.0544,0.000117,15.06403133,546.3916911033293,548.0122204189774,1 45540U 20025K   25263.09387961  .00001942  00000+0  14918-3 0  9999,2 45540  53.0544 152.4532 0001170  72.5464 287.5652 15.06403133299371
STARLINK-1371,45542,53.0535,0.0001345,15.06383324,546.3312016926493,548.1941342033269,1 45542U 20025M   25263.13072576 -.00008175  00000+0 -53081-3 0  9990,2 45542  53.0535 152.2896 0001345 105.6114 254.5023 15.06383324299384
STARLINK-1372,45543,53.0537,0.0001448,15.06393755,546.2279047872807,548.2334912726301,1 45543U 20025N   25263.10125228  .00005321  00000+0  37592-3 0  9998,2 45543  53.0537 152.4196 0001448  97.0708 263.0446 15.06393755298471
STARLINK-1373,45544,53.0538,0.0001421,15.06411401,546.1925286709065,548.1607028004983,1 45544U 20025P   25262.98698357  .00001461  00000+0  11691-3 0  9995,2 45544  53.0538 152.9329 0001421  78.1325 281.9823 15.06411401299368
STARLINK-1294,45551,53.0507,0.0004764,15.50748535,411.3033083905457,417.7753704067245,1 45551U 20025W   25263.00002315  .00148208  00000+0  24917-2 0  9995,2 45551  53.0507 100.6283 0004764 202.2015 153.5612 15.50748535  5950
STARLINK-1323,45553,53.0361,0.0005642,15.88411292,302.9649570648562,310.50816839303934,1 45553U 20025Y   25263.25003472  .00176008  00000+0  61107-3 0  9991,2 45553  53.0361  82.5525 0005642  90.0962 112.1183 15.88411292  6051
STARLINK-1325,45554,53.0602,9.48e-05,15.46218956,427.15356167817936,428.4439670991069,1 45554U 20025Z   25262.79990633  .00054192  00000+0  10860-2 0  9992,2 45554  53.0602  93.3170 0000948 266.8399  93.2499 15.46218956300194
STARLINK-1327,45555,53.0533,0.0001453,15.06411539,546.1699447840319,548.1824407978575,1 45555U 20025AA  25263.02568886 -.00001990  00000+0 -11471-3 0  9991,2 45555  53.0533 132.7587 0001453  92.3263 267.7893 15.06411539299643
STARLINK-1336,45557,53.0396,0.0006595,15.83706161,315.5529508647505,324.387754462914,1 45557U 20025AC  25263.25003472  .00247369  00000+0  10688-2 0  9991,2 45557  53.0396  88.0627 0006595 112.6858 219.3962 15.83706161  6096
STARLINK-1342,45558,53.0441,0.000286,15.9355525,290.43531416862425,294.25082876950546,1 45558U 20025AD  25263.25003472  .00286419  42601-4  78552-3 0  9994,2 45558  53.0441  84.7279 0002860 103.0731 241.5886 15.93555250  6004
STARLINK-1355,45563,53.0287,0.0010709,16.14300029,227.99128603087684,242.15546000780978,1 45563U 20025AJ  25263.56673513  .01108179  82699-3  85739-3 0  9995,2 45563  53.0287  11.6400 0010709 336.6610  23.3938 16.14300029301383
STARLINK-1356,45564,53.0531,0.0001365,15.06413912,546.2236157320376,548.1142242481956,1 45564U 20025AK  25263.02937712  .00006973  00000+0  48635-3 0  9995,2 45564  53.0531 132.7422 0001365 101.2392 258.8751 15.06413912299645
STARLINK-1357,45565,53.0677,0.0008737,15.24938841,484.9675506184776,496.970626597712,1 45565U 20025AL  25263.00601311  .00050557  00000+0  20013-2 0  9993,2 45565  53.0677 124.3297 0008737 107.0909 253.1046 15.24938841299763
STARLINK-1361,45567,53.0529,0.0001239,15.06412766,546.3143864245703,548.030478101884,1 45567U 20025AN  25262.91511559  .00004551  00000+0  32410-3 0  9996,2 45567  53.0529 133.2569 0001239  85.5740 274.5391 15.06412766299634
STARLINK-1363,45568,53.0529,0.0001336,15.06417884,546.2315273517679,548.0819658408582,1 45568U 20025AP  25262.92988304  .00007397  00000+0  51474-3 0  9996,2 45568  53.0529 133.4300 0001336  84.5506 275.5635 15.06417884299624
STARLINK-1366,45569,53.0533,0.0001367,15.06414628,546.2200365685967,548.1134146071736,1 45569U 20025AQ  25262.91879413  .00003945  00000+0  28350-3 0  9998,2 45569  53.0533 133.2385 0001367  88.7345 271.3801 15.06414628299624
STARLINK-1376,45570,53.0538,0.0001149,15.06411116,546.3817705739648,547.9732078435854,1 45570U 20025AR  25262.91143357  .00007063  00000+0  49242-3 0  9999,2 45570  53.0538 133.2734 0001149  87.5212 272.5909 15.06411116299628
STARLINK-1320,45572,53.0606,0.0008582,15.35165558,454.559928974114,466.2976432894302,1 45572U 20025AT  25262.83540904  .00066852  00000+0  19227-2 0  9991,2 45572  53.0606  86.5311 0008582 170.1408 189.9763 15.35165558300294
STARLINK-1321,45573,53.0535,0.0001467,15.06413104,546.1554536149888,548.1873390984792,1 45573U 20025AU  25262.89760202  .00005246  00000+0  37066-3 0  9995,2 45573  53.0535 123.3347 0001467  87.0083 273.1074 15.06413104299463
STARLINK-1328,45576,53.0544,0.0002049,15.54072073,403.4615063892188,406.24117501123783,1 45576U 20025AX  25262.90563449  .00114435  00000+0  17167-2 0  9994,2 45576  53.0544 115.7780 0002049 166.3185 193.7881 15.54072073299881
STARLINK-1331,45578,53.0531,0.0001101,15.06411709,546.4131948469676,547.9381486972916,1 45578U 20025AZ  25263.00818750  .00006619  00000+0  46269-3 0  9996,2 45578  53.0531 122.8377 0001101  92.2237 267.8878 15.06411709299792
STARLINK-1333,45580,53.053,0.0001237,15.06421423,546.2892428121022,548.0025578016375,1 45580U 20025BB  25263.01462842  .00006456  00000+0  45164-3 0  9999,2 45580  53.0530 132.8099 0001237  85.3167 274.7963 15.06421423299641
STARLINK-1335,45581,53.0543,0.0001585,15.06415617,546.066034335965,548.2613546561188,1 45581U 20025BC  25263.01923489  .00002199  00000+0  16643-3 0  9999,2 45581  53.0543 122.7879 0001585  88.5292 271.5879 15.06415617299784
STARLINK-1337,45582,53.0537,0.0001506,15.06402765,546.1601274078794,548.2460398410667,1 45582U 20025BD  25262.84231926  .00002886  00000+0  21255-3 0  9996,2 45582  53.0537 123.5825 0001506  90.3902 269.7259 15.06402765299758
STARLINK-1347,45586,53.0603,0.0008098,15.24256353,487.4551080264828,498.58363288407327,1 45586U 20025BH  25262.85283867  .00048451  00000+0  19588-2 0  9995,2 45586  53.0603 115.3374 0008098 113.3004 246.8846 15.24256353299866
STARLINK-1360,45588,53.0493,0.0002017,15.66320802,368.0818348617722,370.80380856185093,1 45588U 20025BK  25262.64785522  .00059614  00000+0  56633-3 0  9995,2 45588  53.0493  47.8529 0002017 334.3882  25.7032 15.66320802300805
STARLINK-1364,45589,53.0548,0.0001528,15.06400033,546.1532635538342,548.2696500422308,1 45589U 20025BL  25262.84600246  .00001536  00000+0  12198-3 0  9995,2 45589  53.0548 123.5685 0001528  93.9841 266.1323 15.06400033299755
STARLINK-1365,45590,53.0543,0.0001374,15.06403843,546.2482384482764,548.1513209953446,1 45590U 20025BM  25262.99435898  .00000604  00000+0  59441-4 0  9990,2 45590  53.0543 152.9003 0001374  99.1619 260.9526 15.06403843299379
STARLINK-1443,45660,53.0532,0.0001156,15.06406484,546.3911174873838,547.9922534794669,1 45660U 20035D   25262.91327512  .00005255  00000+0  37137-3 0  9998,2 45660  53.0532 113.2660 0001156  90.3452 269.7670 15.06406484292992
STARLINK-1446,45663,53.0271,0.00069,15.2920357,473.4609782851312,482.92271209149203,1 45663U 20035G   25262.81499813  .00059520  00000+0  20668-2 0  9998,2 45663  53.0271  84.0319 0006900 123.0540 237.1122 15.29203570293397
STARLINK-1448,45665,53.0531,0.0001205,15.0640909,546.3491973933969,548.0181996817437,1 45665U 20035J   25262.85060814  .00005012  00000+0  35506-3 0  9994,2 45665  53.0531 113.5434 0001205  87.6911 272.4216 15.06409090292973
STARLINK-1451,45668,53.0529,0.0001224,15.06414448,546.3196200095517,548.014934496623,1 45668U 20035M   25262.98702703  .00006016  00000+0  42228-3 0  9995,2 45668  53.0529 113.2507 0001224  87.9279 272.1851 15.06414448293002
STARLINK-1452,45669,53.0479,0.0004715,15.21394373,498.3900033013442,504.87762718011527,1 45669U 20035N   25262.78890377  .00007672  00000+0  35175-3 0  9991,2 45669  53.0479 100.3353 0004715 187.4369 172.6557 15.21394373293162
STARLINK-1453,45670,53.0548,0.0001273,15.06406795,546.3091380998949,548.0723265405431,1 45670U 20035P   25262.79807458  .00001074  00000+0  90992-4 0  9991,2 45670  53.0548  83.7848 0001273  73.1875 286.9254 15.06406795293284
